[{"OBJECT_NAME":"STARLINK-1523","OBJECT_ID":"2020-055B","EPOCH":"2026-03-10T00:00:02.999808","MEAN_MOTION":15.18858191,"ECCENTRICITY":1.299e-5,"INCLINATION":53.1064,"RA_OF_ASC_NODE":124.8251,"ARG_OF_PERICENTER":79.5973,"MEAN_ANOMALY":273.0855,"EPHEMERIS_TYPE":0,"CLASSIFICATION_TYPE":"U","NORAD_CAT_ID":46028,"ELEMENT_SET_NO":999,"REV_AT_EPOCH":574,"BSTAR":0.0058060297,"MEAN_MOTION_DOT":0.00124296,"MEAN_MOTION_DDOT":0},{"OBJECT_NAME":"NOAA 17 DEB","OBJECT_ID":"2002-032CE","EPOCH":"2026-03-09T04:37:56.707680","MEAN_MOTION":15.14538728,"ECCENTRICITY":0.00195132,"INCLINATION":98.8443,"RA_OF_ASC_NODE":158.3366,"ARG_OF_PERICENTER":246.7141,"MEAN_ANOMALY":113.2034,"EPHEMERIS_TYPE":0,"CLASSIFICATION_TYPE":"U","NORAD_CAT_ID":48745,"ELEMENT_SET_NO":999,"REV_AT_EPOCH":26329,"BSTAR":0.0059143418,"MEAN_MOTION_DOT":0.00111029,"MEAN_MOTION_DDOT":0}]
